BEIDOU 3 (C01)          
1 36287U 10001A   21260.53240959 -.00000304  00000-0  00000-0 0  9994
2 36287   1.6421  40.0509 0003567  73.6464 215.1133  1.00270668 42777
BEIDOU 5 (C06)          
1 36828U 10036A   21260.63795399 -.00000180  00000-0  00000-0 0  9999
2 36828  54.1839 178.7430 0023141 182.0141 332.9217  1.00277039 40849
BEIDOU 6 (C04)          
1 37210U 10057A   21260.62549501 -.00000137  00000-0  00000-0 0  9991
2 37210   0.9969  55.7337 0006671 135.3516 190.8107  1.00270082 39909
BEIDOU 7 (C07)          
1 37256U 10068A   21260.64595631 -.00000173  00000-0  00000-0 0  9990
2 37256  50.7025 292.9059 0019951 184.7853 220.1814  1.00302327 39414
BEIDOU 8 (C08)          
1 37384U 11013A   21260.38169664 -.00000155  00000-0  00000-0 0  9997
2 37384  59.9079  56.9763 0018543 179.6715   3.3985  1.00281086 38284
BEIDOU 9 (C09)          
1 37763U 11038A   21260.64841926 -.00000128  00000-0  00000-0 0  9992
2 37763  54.4717 181.2019 0086526 226.9919 275.1442  1.00290819 37266
BEIDOU 10 (C10)         
1 37948U 11073A   21260.35319600 -.00000126  00000-0  00000-0 0  9991
2 37948  50.8074 292.5340 0078940 217.0521  70.3946  1.00272683 36016
BEIDOU 11 (C05)         
1 38091U 12008A   21260.58788034  .00000034  00000-0  00000-0 0  9993
2 38091   1.7488  70.0216 0003675 336.8148 220.3589  1.00266435 35094
BEIDOU 12 (C11)         
1 38250U 12018A   21260.26338764 -.00000116  00000-0  00000-0 0  9999
2 38250  56.7487   2.5841 0022334 243.9689  44.6773  1.86234397 63993
BEIDOU 13 (C12)         
1 38251U 12018B   21260.47182780 -.00000116  00000-0  00000-0 0  9998
2 38251  56.6693   1.9201 0013310 243.1009 229.6444  1.86234166 64004
BEIDOU 15 (C14)         
1 38775U 12050B   21260.26191738  .00000010  00000-0  00000-0 0  9997
2 38775  55.2498 120.8883 0013224 328.1247 201.1829  1.86231419 61379
BEIDOU 16 (C02)         
1 38953U 12059A   21259.44453778 -.00000195  00000-0  00000-0 0  9992
2 38953   1.3117  84.0840 0009725 293.5849 221.8418  1.00266460 32657
BEIDOU 17 (C31)         
1 40549U 15019A   21260.05381666 -.00000144  00000-0  00000+0 0  9993
2 40549  52.3482 315.9303 0038106 188.7817 321.6746  1.00299796 23692
BEIDOU 18 (C57)         
1 40748U 15037A   21259.78735294 -.00000115  00000-0  00000+0 0  9990
2 40748  55.9284   0.9744 0001853  51.3923 232.2368  1.86233532 41815
BEIDOU 19 (C58)         
1 40749U 15037B   21260.25457279 -.00000116  00000-0  00000-0 0  9991
2 40749  55.9316   0.9474 0002528 300.0766  72.4936  1.86232210 41829
BEIDOU 20 (C18)         
1 40938U 15053A   21260.40140965 -.00000094  00000-0  00000-0 0  9992
2 40938  51.9245 279.0063 0048188 196.1431 121.3028  1.00262310 21963
BEIDOU IGSO-6 (C13)     
1 41434U 16021A   21260.60248966 -.00000124  00000-0  00000-0 0  9996
2 41434  57.7076  55.6822 0042934 210.5624  40.1976  1.00294328 20097
BEIDOU-2 G7 (C03)       
1 41586U 16037A   21260.38778081 -.00000378  00000-0  00000-0 0  9993
2 41586   1.8943  68.9132 0008447  15.0650 162.6547  1.00276312 19407
BEIDOU-3 M1 (C19)       
1 43001U 17069A   21260.20813878  .00000010  00000-0  00000-0 0  9990
2 43001  55.4032 120.8537 0008467 295.7458 353.5130  1.86231959 26305
BEIDOU-3 M2 (C20)       
1 43002U 17069B   21260.52478032  .00000013  00000-0  00000-0 0  9998
2 43002  55.4026 120.8776 0007489 322.0513 222.8354  1.86231496 26305
BEIDOU-3 M3 (C27)       
1 43107U 18003A   21260.40111056 -.00000117  00000-0  00000-0 0  9996
2 43107  55.3726   1.9931 0004334  65.3680 202.5209  1.86232631 25065
BEIDOU-3 M4 (C28)       
1 43108U 18003B   21259.49900222 -.00000115  00000-0  00000+0 0  9992
2 43108  55.3677   2.0124 0003447 224.5589 203.6885  1.86232662 25053
BEIDOU-3 M5 (C21)       
1 43207U 18018A   21259.84449047  .00000006  00000-0  00000-0 0  9999
2 43207  55.3607 120.9890 0005524 354.6047   5.4730  1.86231713 24443
BEIDOU-3 M6 (C22)       
1 43208U 18018B   21259.37426411  .00000002  00000-0  00000-0 0  9994
2 43208  55.3613 121.0094 0006660 310.4132  49.6164  1.86231730 24435
BEIDOU-3 M7 (C29)       
1 43245U 18029A   21259.61873590 -.00000115  00000-0  00000-0 0  9994
2 43245  55.2977 359.8052 0001228 172.2078 201.3790  1.86232466 23596
BEIDOU-3 M8 (C30)       
1 43246U 18029B   21259.92916589 -.00000116  00000-0  10000-3 0  9990
2 43246  55.2963 359.8265 0002834 353.4866 274.5069  1.86232825 23589
BEIDOU IGSO-7 (C16)     
1 43539U 18057A   21260.60421676 -.00000185  00000-0  00000-0 0  9993
2 43539  55.0642 178.1338 0041285 224.3433 283.0557  1.00293792 11779
BEIDOU-3 M9 (C23)       
1 43581U 18062A   21260.42443722  .00000012  00000-0  00000-0 0  9990
2 43581  54.3694 241.4404 0006373 271.6217 178.7206  1.86231944 21347
BEIDOU-3 M10 (C24)      
1 43582U 18062B   21260.41614780  .00000012  00000-0  00000-0 0  9994
2 43582  54.3684 241.4307 0005359 328.2496 207.9674  1.86232311 21343
BEIDOU-3 M11 (C25)      
1 43602U 18067A   21260.41635549  .00000011  00000-0  00000-0 0  9997
2 43602  54.4467 240.0210 0006847 350.6411 227.7558  1.86231629 20838
BEIDOU-3 M12 (C26)      
1 43603U 18067B   21260.42514639  .00000011  00000-0  00000-0 0  9995
2 43603  54.4440 239.9890 0004408 332.2088 162.5228  1.86231564 20858
BEIDOU-3 M13 (C32)      
1 43622U 18072A   21260.61146291  .00000014  00000-0  00000-0 0  9991
2 43622  55.3275 120.5278 0005223 293.9320 355.7282  1.86231992 20365
BEIDOU-3 M14 (C33)      
1 43623U 18072B   21260.47137674  .00000013  00000-0  00000-0 0  9990
2 43623  55.3295 120.5237 0003782 330.8070 315.1628  1.86231998 20364
BEIDOU-3 M15 (C34)      
1 43647U 18078A   21260.30917644 -.00000117  00000-0  10000-3 0  9997
2 43647  55.1949 359.9640 0005176   1.3975  71.0455  1.86232913 19871
BEIDOU-3 M16 (C35)      
1 43648U 18078B   21260.44827454 -.00000117  00000-0  00000-0 0  9998
2 43648  55.1898 359.9658 0003175  19.8335  54.1645  1.86232419 19891
BEIDOU-3 G1 (C59)       
1 43683U 18085A   21260.38867410 -.00000303  00000-0  00000-0 0  9991
2 43683   0.9335 214.9002 0004103  18.8014  42.7595  1.00274765 10672
BEIDOU-3 M17 (C36)      
1 43706U 18093A   21259.95401991  .00000020  00000-0  00000-0 0  9990
2 43706  54.4511 241.3218 0011558 272.5450  87.3066  1.86231756 19243
BEIDOU-3 M18 (C37)      
1 43707U 18093B   21260.14434848  .00000017  00000-0  00000-0 0  9997
2 43707  54.4512 241.3064 0010077 290.6204 287.7835  1.86232191 19230
BEIDOU-3 IGSO-1 (C38)   
1 44204U 19023A   21260.39772039 -.00000195  00000-0  00000-0 0  9996
2 44204  56.1564  55.9204 0022505 184.7880  16.3711  1.00293397  8975
BEIDOU-2 G8             
1 44231U 19027A   21260.55208463 -.00000271  00000-0  00000-0 0  9998
2 44231   0.2934  33.1281 0006909 162.6892 144.1674  1.00273496  8681
BEIDOU-3 IGSO-2 (C39)   
1 44337U 19035A   21260.64051418 -.00000189  00000-0  00000-0 0  9998
2 44337  55.0988 174.1661 0020134 183.5685 348.6454  1.00284796  8313
BEIDOU-3 M23 (C45)      
1 44542U 19061A   21260.27455943  .00000015  00000-0  10000-3 0  9996
2 44542  54.6759 241.3983 0009281 318.2775 300.1584  1.86231461 13490
BEIDOU-3 M24 (C46)      
1 44543U 19061B   21260.40473083  .00000013  00000-0  10000-3 0  9995
2 44543  54.6740 241.3646 0007024 303.6291 313.0557  1.86231822 13495
BEIDOU-3 IGSO-3         
1 44709U 19073A   21260.64473872 -.00000150  00000-0  00000-0 0  9993
2 44709  57.6988 299.2127 0020565 184.2126 224.4838  1.00289460  7078
BEIDOU-3 M21            
1 44793U 19078A   21260.41260917 -.00000117  00000-0  10000-3 0  9997
2 44793  55.0428   0.0156 0005096   8.4576  87.6391  1.86232066 12365
BEIDOU-3 M22            
1 44794U 19078B   21258.64466513 -.00000112  00000-0  00000+0 0  9990
2 44794  55.0180   0.0728 0003155   6.9459 254.9924  1.86233017 12327
BEIDOU-3 M19            
1 44864U 19090A   21260.54840017  .00000013  00000-0  00000-0 0  9999
2 44864  55.2631 120.7561 0014926 268.1489  24.7486  1.86232003 11943
BEIDOU-3 M20            
1 44865U 19090B   21260.40442787  .00000012  00000-0  00000-0 0  9996
2 44865  55.2643 120.7921 0013314 284.3949   1.8816  1.86231851 11918
BEIDOU-3 G2             
1 45344U 20017A   21260.59841160 -.00000164  00000-0  00000-0 0  9997
2 45344   2.3217 339.7230 0003724 161.2836 151.1976  1.00271265  5882
BEIDOU-3 G3             
1 45807U 20040A   21260.59825929 -.00000379  00000-0  00000-0 0  9990
2 45807   2.0752 298.9097 0008747 335.9459  47.6732  1.00265417  4706
